[
    {
        "Altitude(m)": 624792.7414932752,
        "Argument of Periapsis(deg)": 0.0,
        "Eccentricity": 0.0,
        "Inclination(deg)": 60.0,
        "Latitude(deg)": -59.14699486725203,
        "Longitude(deg)": 69.026479527347,
        "Mean Anomaly(deg)": -98.18179999999998,
        "RAAN(deg)": 275.0,
        "Satellite Name": "Test1 1226",
        "Satellite Number": 1226,
        "Semi-Major Axis(m)": 6980739.136638005,
        "Time(s)": 0
    },
    {
        "Altitude(m)": 624842.1333166321,
        "Argument of Periapsis(deg)": 0.00010418945913296404,
        "Eccentricity": 0.0,
        "Inclination(deg)": 60.0,
        "Latitude(deg)": -59.289077570631946,
        "Longitude(deg)": 70.15598094726288,
        "Mean Anomaly(deg)": -97.56169385453813,
        "RAAN(deg)": 274.9995799508602,
        "Satellite Name": "Test1 1226",
        "Satellite Number": 1226,
        "Semi-Major Axis(m)": 6980739.136638005,
        "Time(s)": 10
    }
]